[{"OBJECT_NAME":"STARLINK-1954","OBJECT_ID":"2021-009H","EPOCH":"2026-03-09T23:20:25.352160","MEAN_MOTION":15.30849174,"ECCENTRICITY":0.00046184,"INCLINATION":53.0574,"RA_OF_ASC_NODE":8.8654,"ARG_OF_PERICENTER":103.3293,"MEAN_ANOMALY":256.8222,"EPHEMERIS_TYPE":0,"CLASSIFICATION_TYPE":"U","NORAD_CAT_ID":47555,"ELEMENT_SET_NO":999,"REV_AT_EPOCH":28100,"BSTAR":0.0022371791,"MEAN_MOTION_DOT":0.00067883,"MEAN_MOTION_DDOT":0},{"OBJECT_NAME":"STARLINK-34566","OBJECT_ID":"2025-147L","EPOCH":"2026-03-09T21:18:14.324256","MEAN_MOTION":15.30179956,"ECCENTRICITY":0.0001125,"INCLINATION":53.1587,"RA_OF_ASC_NODE":241.7163,"ARG_OF_PERICENTER":68.3537,"MEAN_ANOMALY":291.7584,"EPHEMERIS_TYPE":0,"CLASSIFICATION_TYPE":"U","NORAD_CAT_ID":64765,"ELEMENT_SET_NO":999,"REV_AT_EPOCH":3878,"BSTAR":0.00052945413,"MEAN_MOTION_DOT":0.00015345,"MEAN_MOTION_DDOT":0}]
